[{"OBJECT_NAME":"ORBCOMM FM113","OBJECT_ID":"2015-081G","EPOCH":"2026-03-09T06:16:31.573920","MEAN_MOTION":14.58730378,"ECCENTRICITY":6.326e-5,"INCLINATION":47.002,"RA_OF_ASC_NODE":23.0518,"ARG_OF_PERICENTER":114.2825,"MEAN_ANOMALY":245.8127,"EPHEMERIS_TYPE":0,"CLASSIFICATION_TYPE":"U","NORAD_CAT_ID":41185,"ELEMENT_SET_NO":999,"REV_AT_EPOCH":54434,"BSTAR":0.0002290927,"MEAN_MOTION_DOT":9.09e-6,"MEAN_MOTION_DDOT":0},{"OBJECT_NAME":"IRIDIUM 33 DEB","OBJECT_ID":"1997-051ABX","EPOCH":"2026-03-05T15:09:14.031360","MEAN_MOTION":14.61027741,"ECCENTRICITY":0.0020944,"INCLINATION":86.333,"RA_OF_ASC_NODE":303.9282,"ARG_OF_PERICENTER":47.4459,"MEAN_ANOMALY":342.3534,"EPHEMERIS_TYPE":0,"CLASSIFICATION_TYPE":"U","NORAD_CAT_ID":46965,"ELEMENT_SET_NO":999,"REV_AT_EPOCH":63478,"BSTAR":0.00082387,"MEAN_MOTION_DOT":4.076e-5,"MEAN_MOTION_DDOT":0}]
